{"fetched_at":"2026-03-30T06:02:59Z","count":15439,"tles":[{"name":"STARLINK-31399","line1":"1 59416U 24064U   26087.88642837  .00000398  00000+0  23980-4 0  9995","line2":"2 59416  43.0034 307.5845 0001731 269.8425  90.2228 15.27579320112166","category":"Starlink"}]}