{
  "norad_id": 59416,
  "name": "STARLINK-31399",
  "history": [
    {
      "epoch": "2026-03-28T21:16:27.411168",
      "apogee_km": 484.23887248260326,
      "perigee_km": 481.86339192747073,
      "latitude_deg": -29.12960573755264,
      "longitude_deg": -153.3028764796909,
      "semi_major_axis_km": 6861.188132205037,
      "eccentricity": 0.00017311,
      "inclination_deg": 43.0034,
      "raan_deg": 307.5845,
      "arg_perigee_deg": 269.8425,
      "mean_anomaly_deg": 90.2228,
      "mean_motion_rev_day": 15.2757932
    }
  ]
}